TIANMU-1 07             
1 57399U 23101A   26065.57454230  .00008352  00000+0  29795-3 0  9991
2 57399  97.2728 118.5929 0004609 142.4105 217.7458 15.29118809145964
STARLINK-31511          
1 59462U 24068H   26068.31561203 -.00000402  00000+0 -50759-5 0  9997
2 59462  43.0023  36.7900 0001374 254.7480 105.3220 15.27576819108463
